ORBCOMM FM20            
1 25416U 98046D   25330.40978197  .00001038  00000+0  38978-3 0  9992
2 25416  44.9922 132.8183 0000817 100.7038 259.3902 14.37606530427605
ORBCOMM FM16            
1 25417U 98046E   25330.97025355  .00001398  00000+0  49008-3 0  9999
2 25417  44.9923 119.5180 0003706  53.5215 306.5975 14.39458586427702
ORBCOMM FM15            
1 25418U 98046F   25330.77918498  .00001434  00000+0  50520-3 0  9999
2 25418  44.9950 126.0668 0003553  53.3962 306.7213 14.39084689427665
ORBCOMM FM14            
1 25419U 98046G   25330.75398057  .00001501  00000+0  52239-3 0  9995
2 25419  44.9943 123.9321 0002215  54.5098 305.5958 14.39496267427636
ORBCOMM FM13            
1 25420U 98046H   25330.80588971  .00001244  00000+0  45301-3 0  9995
2 25420  44.9955 133.3018 0004327  23.6940 336.4107 14.38134261426649
ORBCOMM FM21            
1 25475U 98053A   25331.13008694  .00000917  00000+0  34887-3 0  9992
2 25475  45.0075 217.6488 0002429 341.3520  18.7239 14.37747007420698
ORBCOMM FM22            
1 25476U 98053B   25331.04357117  .00001221  00000+0  43849-3 0  9997
2 25476  45.0064 211.5361 0003969 335.0283  25.0374 14.38906479420722
ORBCOMM FM23            
1 25477U 98053C   25331.10779366  .00001072  00000+0  39796-3 0  9999
2 25477  45.0074 219.6231 0003355 332.1034  27.9634 14.37981408420847
